{
  "norad_id": 46907,
  "name": "KSM1-D",
  "history": [
    {
      "epoch": "2026-03-28T18:44:56.940576",
      "apogee_km": 498.1872855288775,
      "perigee_km": 492.2911659349211,
      "latitude_deg": -36.885497090901154,
      "longitude_deg": 25.696600639959797,
      "semi_major_axis_km": 6873.3762257318995,
      "eccentricity": 0.00042891,
      "inclination_deg": 36.8958,
      "raan_deg": 202.3614,
      "arg_perigee_deg": 281.0628,
      "mean_anomaly_deg": 78.9638,
      "mean_motion_rev_day": 15.23517992
    }
  ]
}