{"fetched_at":"2026-03-29T16:36:15Z","count":15609,"tles":[{"name":"KSM1-D","line1":"1 46907U 20081C   26087.78121459  .00010696  00000+0  44098-3 0  9996","line2":"2 46907  36.8958 202.3614 0004289 281.0628  78.9638 15.23517992296827","category":"Other"}]}